{"fetched_at":"2026-07-16T06:43:25.736Z","source":"https://celestrak.org/NORAD/elements/gp.php?NAME=UMBRA&FORMAT=JSON","constellation":"umbra","records":[{"OBJECT_NAME":"UMBRA-07","OBJECT_ID":"2023-174AT","EPOCH":"2026-07-15T17:52:08.663808","CLASSIFICATION_TYPE":"U","MEAN_MOTION":15.09626837,"ECCENTRICITY":0.00022801,"INCLINATION":97.3779,"RA_OF_ASC_NODE":251.4326,"ARG_OF_PERICENTER":19.319,"MEAN_ANOMALY":340.8125,"EPHEMERIS_TYPE":0,"NORAD_CAT_ID":58297,"ELEMENT_SET_NO":999,"REV_AT_EPOCH":14772,"BSTAR":0.00032097661,"MEAN_MOTION_DOT":0.00005102,"MEAN_MOTION_DDOT":0},{"OBJECT_NAME":"UMBRA-09","OBJECT_ID":"2024-149CB","EPOCH":"2026-07-15T19:10:14.522016","CLASSIFICATION_TYPE":"U","MEAN_MOTION":15.1886408,"ECCENTRICITY":0.00020754,"INCLINATION":97.6974,"RA_OF_ASC_NODE":284.5108,"ARG_OF_PERICENTER":201.7624,"MEAN_ANOMALY":158.3522,"EPHEMERIS_TYPE":0,"NORAD_CAT_ID":60541,"ELEMENT_SET_NO":999,"REV_AT_EPOCH":10506,"BSTAR":0.00055165805,"MEAN_MOTION_DOT":0.00011437,"MEAN_MOTION_DDOT":0},{"OBJECT_NAME":"UMBRA-10","OBJECT_ID":"2024-149CH","EPOCH":"2026-07-15T19:09:35.206560","CLASSIFICATION_TYPE":"U","MEAN_MOTION":15.18861857,"ECCENTRICITY":0.0001674,"INCLINATION":97.6981,"RA_OF_ASC_NODE":284.5401,"ARG_OF_PERICENTER":166.3022,"MEAN_ANOMALY":193.8257,"EPHEMERIS_TYPE":0,"NORAD_CAT_ID":60547,"ELEMENT_SET_NO":999,"REV_AT_EPOCH":10507,"BSTAR":0.00047044714,"MEAN_MOTION_DOT":0.0000974,"MEAN_MOTION_DDOT":0},{"OBJECT_NAME":"UMBRA-11","OBJECT_ID":"2025-276CL","EPOCH":"2026-07-15T18:10:02.243424","CLASSIFICATION_TYPE":"U","MEAN_MOTION":15.27795055,"ECCENTRICITY":0.00027529,"INCLINATION":97.419,"RA_OF_ASC_NODE":271.2303,"ARG_OF_PERICENTER":184.5674,"MEAN_ANOMALY":175.5541,"EPHEMERIS_TYPE":0,"NORAD_CAT_ID":66748,"ELEMENT_SET_NO":999,"REV_AT_EPOCH":3485,"BSTAR":0.00049515662,"MEAN_MOTION_DOT":0.00013379,"MEAN_MOTION_DDOT":0},{"OBJECT_NAME":"UMBRA-12","OBJECT_ID":"2026-004J","EPOCH":"2026-07-15T22:16:03.545184","CLASSIFICATION_TYPE":"U","MEAN_MOTION":14.89535405,"ECCENTRICITY":0.00073535,"INCLINATION":97.8022,"RA_OF_ASC_NODE":195.304,"ARG_OF_PERICENTER":51.046,"MEAN_ANOMALY":309.1412,"EPHEMERIS_TYPE":0,"NORAD_CAT_ID":67371,"ELEMENT_SET_NO":999,"REV_AT_EPOCH":2758,"BSTAR":0.00023932305,"MEAN_MOTION_DOT":0.00002227,"MEAN_MOTION_DDOT":0}]}
